IRIDIUM 155             
1 43573U 18061E   24321.21845495  .00000594  00000+0  20519-3 0  9995
2 43573  86.3922 298.2049 0002431  82.0588 278.0884 14.34217701330518
IRIDIUM 154             
1 43574U 18061F   24321.19942363  .00000354  00000+0  11952-3 0  9990
2 43574  86.3921 298.3181 0002266  91.0714 269.0741 14.34215808330566
IRIDIUM 163             
1 43575U 18061G   24321.18039750  .00000559  00000+0  19239-3 0  9990
2 43575  86.3923 298.2595 0002479  90.0901 270.0579 14.34219203330531
IRIDIUM 156             
1 43576U 18061H   24321.22479501  .00000605  00000+0  20883-3 0  9997
2 43576  86.3923 298.2476 0002429  79.2079 280.9391 14.34219740330538
IRIDIUM 164             
1 43577U 18061J   24321.48483944  .00000598  00000+0  20661-3 0  9997
2 43577  86.3928 298.1700 0002034  84.9486 275.1942 14.34216070330610
IRIDIUM 159             
1 43578U 18061K   24321.24382359  .00000134  00000+0  40725-4 0  9990
2 43578  86.3923 298.2196 0002134  89.8116 270.3324 14.34216591330542
IRIDIUM 180             
1 43922U 19002A   24321.31309769  .00000559  00000+0  19242-3 0  9991
2 43922  86.3992 235.0414 0002228  83.9243 276.2206 14.34213525306207
IRIDIUM 176             
1 43923U 19002B   24321.29756018  .00002455  00000+0  38537-3 0  9997
2 43923  86.6122 235.0571 0002510  94.5072 265.6432 14.72254801314220
IRIDIUM 168             
1 43924U 19002C   24321.30674648  .00000023  00000+0  10502-5 0  9991
2 43924  86.3996 235.1050 0002276  84.5038 275.6417 14.34213656306147
IRIDIUM 173             
1 43925U 19002D   24321.22429713  .00000640  00000+0  22131-3 0  9998
2 43925  86.3991 235.0521 0002193  82.4487 277.6958 14.34218833306119
IRIDIUM 169             
1 43926U 19002E   24321.24381509  .00000775  00000+0  24697-3 0  9999
2 43926  86.4203 266.6696 0004152  82.7434 277.4236 14.38602842307133
IRIDIUM 172             
1 43927U 19002F   24321.28772364  .00000674  00000+0  23357-3 0  9997
2 43927  86.3990 235.0318 0002171  85.2008 274.9436 14.34218172306139
IRIDIUM 175             
1 43928U 19002G   24321.42806945  .00001853  00000+0  28978-3 0  9991
2 43928  86.1551 199.5970 0002938  61.6790 298.4723 14.72258241314239
IRIDIUM 171             
1 43929U 19002H   24321.47799718  .00000628  00000+0  21726-3 0  9999
2 43929  86.4002 235.1946 0001975  75.3431 284.7984 14.34216297306150
IRIDIUM 170             
1 43930U 19002J   24321.37173374  .00002428  00000+0  38103-3 0  9991
2 43930  86.6125 235.0312 0002234  85.3368 274.8105 14.72262073314244
IRIDIUM 167             
1 43931U 19002K   24321.26234892  .00000583  00000+0  20111-3 0  9993
2 43931  86.3993 235.0597 0002299  74.3023 285.8427 14.34215555306125
IRIDIUM 181             
1 56726U 23068S   24321.04903543  .00000963  00000+0  27857-3 0  9994
2 56726  86.8585 296.2707 0002204  80.9026 279.2425 14.43592971 79040
IRIDIUM 177             
1 56727U 23068T   24321.26126415  .00003510  00000+0  45874-3 0  9994
2 56727  86.1989 243.1258 0002895  73.6887 286.4652 14.80201577 80879
IRIDIUM 174             
1 56728U 23068U   24321.45863010  .00003459  00000+0  45187-3 0  9994
2 56728  86.1995 243.1479 0002392  87.4311 272.7184 14.80214193 80909
IRIDIUM 178             
1 56729U 23068V   24321.38561926  .00003140  00000+0  40987-3 0  9998
2 56729  86.5756 267.8562 0002783  75.0348 285.1181 14.80224535 80896
IRIDIUM 179             
1 56730U 23068W   24321.44765018  .00001013  00000+0  13001-3 0  9999
2 56730  86.6756 273.8851 0002889  85.8158 274.3394 14.80172846 80907
